[{"OBJECT_NAME":"SL-14 R/B","OBJECT_ID":"1986-006B","EPOCH":"2026-03-08T13:52:36.541344","MEAN_MOTION":14.86813479,"ECCENTRICITY":0.00750606,"INCLINATION":82.5233,"RA_OF_ASC_NODE":260.7836,"ARG_OF_PERICENTER":276.5601,"MEAN_ANOMALY":82.7075,"EPHEMERIS_TYPE":0,"CLASSIFICATION_TYPE":"U","NORAD_CAT_ID":16496,"ELEMENT_SET_NO":999,"REV_AT_EPOCH":14904,"BSTAR":9.0059029e-5,"MEAN_MOTION_DOT":8.7e-6,"MEAN_MOTION_DDOT":0},{"OBJECT_NAME":"COSMOS 1743","OBJECT_ID":"1986-034A","EPOCH":"2026-03-08T11:40:20.208864","MEAN_MOTION":15.5845834,"ECCENTRICITY":0.00017254,"INCLINATION":82.5297,"RA_OF_ASC_NODE":75.0937,"ARG_OF_PERICENTER":305.001,"MEAN_ANOMALY":55.1084,"EPHEMERIS_TYPE":0,"CLASSIFICATION_TYPE":"U","NORAD_CAT_ID":16719,"ELEMENT_SET_NO":999,"REV_AT_EPOCH":18006,"BSTAR":0.00055825552,"MEAN_MOTION_DOT":0.00042711,"MEAN_MOTION_DDOT":0},{"OBJECT_NAME":"SL-14 R/B","OBJECT_ID":"1986-046B","EPOCH":"2026-03-08T12:39:42.963840","MEAN_MOTION":14.85589262,"ECCENTRICITY":0.00218888,"INCLINATION":82.4783,"RA_OF_ASC_NODE":81.2801,"ARG_OF_PERICENTER":229.4222,"MEAN_ANOMALY":130.509,"EPHEMERIS_TYPE":0,"CLASSIFICATION_TYPE":"U","NORAD_CAT_ID":16792,"ELEMENT_SET_NO":999,"REV_AT_EPOCH":12623,"BSTAR":7.0288635e-5,"MEAN_MOTION_DOT":6.34e-6,"MEAN_MOTION_DDOT":0},{"OBJECT_NAME":"SL-14 R/B","OBJECT_ID":"1986-055B","EPOCH":"2026-03-08T14:24:30.301344","MEAN_MOTION":14.85641873,"ECCENTRICITY":0.0018274,"INCLINATION":82.5204,"RA_OF_ASC_NODE":127.6982,"ARG_OF_PERICENTER":340.2815,"MEAN_ANOMALY":133.414,"EPHEMERIS_TYPE":0,"CLASSIFICATION_TYPE":"U","NORAD_CAT_ID":16882,"ELEMENT_SET_NO":999,"REV_AT_EPOCH":11920,"BSTAR":6.754221e-5,"MEAN_MOTION_DOT":6.1e-6,"MEAN_MOTION_DDOT":0},{"OBJECT_NAME":"AJISAI (EGS)","OBJECT_ID":"1986-061A","EPOCH":"2026-03-08T14:17:11.080896","MEAN_MOTION":12.44515669,"ECCENTRICITY":0.001126,"INCLINATION":50.008,"RA_OF_ASC_NODE":96.7133,"ARG_OF_PERICENTER":284.1826,"MEAN_ANOMALY":163.4004,"EPHEMERIS_TYPE":0,"CLASSIFICATION_TYPE":"U","NORAD_CAT_ID":16908,"ELEMENT_SET_NO":999,"REV_AT_EPOCH":46786,"BSTAR":-1.1610067e-5,"MEAN_MOTION_DOT":-9.9e-7,"MEAN_MOTION_DDOT":0},{"OBJECT_NAME":"SL-14 R/B","OBJECT_ID":"1987-024B","EPOCH":"2026-03-08T13:28:25.465440","MEAN_MOTION":14.86131102,"ECCENTRICITY":0.00166758,"INCLINATION":82.5248,"RA_OF_ASC_NODE":93.8245,"ARG_OF_PERICENTER":264.0307,"MEAN_ANOMALY":95.9009,"EPHEMERIS_TYPE":0,"CLASSIFICATION_TYPE":"U","NORAD_CAT_ID":17567,"ELEMENT_SET_NO":999,"REV_AT_EPOCH":8796,"BSTAR":6.77601e-5,"MEAN_MOTION_DOT":6.19e-6,"MEAN_MOTION_DDOT":0},{"OBJECT_NAME":"COSMOS 1833","OBJECT_ID":"1987-027A","EPOCH":"2026-03-08T15:45:52.090560","MEAN_MOTION":14.13055107,"ECCENTRICITY":0.00243169,"INCLINATION":70.9227,"RA_OF_ASC_NODE":328.1897,"ARG_OF_PERICENTER":215.9566,"MEAN_ANOMALY":143.992,"EPHEMERIS_TYPE":0,"CLASSIFICATION_TYPE":"U","NORAD_CAT_ID":17589,"ELEMENT_SET_NO":999,"REV_AT_EPOCH":1017,"BSTAR":-5.9514316e-5,"MEAN_MOTION_DOT":-1.6e-6,"MEAN_MOTION_DDOT":0},{"OBJECT_NAME":"SL-16 R/B","OBJECT_ID":"1987-027B","EPOCH":"2026-03-08T15:12:16.034688","MEAN_MOTION":14.17165824,"ECCENTRICITY":0.00035184,"INCLINATION":71.001,"RA_OF_ASC_NODE":278.7211,"ARG_OF_PERICENTER":144.9412,"MEAN_ANOMALY":215.1944,"EPHEMERIS_TYPE":0,"CLASSIFICATION_TYPE":"U","NORAD_CAT_ID":17590,"ELEMENT_SET_NO":999,"REV_AT_EPOCH":1519,"BSTAR":3.6441473e-5,"MEAN_MOTION_DOT":2.6e-7,"MEAN_MOTION_DDOT":0},{"OBJECT_NAME":"SL-14 R/B","OBJECT_ID":"1987-038B","EPOCH":"2026-03-08T14:57:21.479328","MEAN_MOTION":14.85368392,"ECCENTRICITY":0.001959,"INCLINATION":82.5003,"RA_OF_ASC_NODE":297.8127,"ARG_OF_PERICENTER":163.8423,"MEAN_ANOMALY":196.3422,"EPHEMERIS_TYPE":0,"CLASSIFICATION_TYPE":"U","NORAD_CAT_ID":17912,"ELEMENT_SET_NO":999,"REV_AT_EPOCH":7907,"BSTAR":6.3178502e-5,"MEAN_MOTION_DOT":5.69e-6,"MEAN_MOTION_DDOT":0},{"OBJECT_NAME":"COSMOS 1844","OBJECT_ID":"1987-041A","EPOCH":"2026-03-08T08:08:57.051744","MEAN_MOTION":14.1455257,"ECCENTRICITY":0.00299485,"INCLINATION":70.8998,"RA_OF_ASC_NODE":37.0223,"ARG_OF_PERICENTER":19.7404,"MEAN_ANOMALY":340.4869,"EPHEMERIS_TYPE":0,"CLASSIFICATION_TYPE":"U","NORAD_CAT_ID":17973,"ELEMENT_SET_NO":999,"REV_AT_EPOCH":339,"BSTAR":-4.3117691e-5,"MEAN_MOTION_DOT":-1.32e-6,"MEAN_MOTION_DDOT":0},{"OBJECT_NAME":"SL-14 R/B","OBJECT_ID":"1987-055B","EPOCH":"2026-03-08T06:19:27.903360","MEAN_MOTION":14.85627974,"ECCENTRICITY":0.00212767,"INCLINATION":82.503,"RA_OF_ASC_NODE":350.375,"ARG_OF_PERICENTER":22.4304,"MEAN_ANOMALY":337.7837,"EPHEMERIS_TYPE":0,"CLASSIFICATION_TYPE":"U","NORAD_CAT_ID":18153,"ELEMENT_SET_NO":999,"REV_AT_EPOCH":6972,"BSTAR":9.2715143e-5,"MEAN_MOTION_DOT":8.3e-6,"MEAN_MOTION_DDOT":0},{"OBJECT_NAME":"COSMOS 1867","OBJECT_ID":"1987-060A","EPOCH":"2026-03-08T09:26:25.257696","MEAN_MOTION":14.31502852,"ECCENTRICITY":0.00144743,"INCLINATION":65.0115,"RA_OF_ASC_NODE":310.336,"ARG_OF_PERICENTER":278.5967,"MEAN_ANOMALY":81.3477,"EPHEMERIS_TYPE":0,"CLASSIFICATION_TYPE":"U","NORAD_CAT_ID":18187,"ELEMENT_SET_NO":999,"REV_AT_EPOCH":1975,"BSTAR":3.6845656e-5,"MEAN_MOTION_DOT":-2.0e-8,"MEAN_MOTION_DDOT":0},{"OBJECT_NAME":"SL-14 R/B","OBJECT_ID":"1988-001B","EPOCH":"2026-03-08T11:03:32.612832","MEAN_MOTION":14.85526614,"ECCENTRICITY":0.0016778,"INCLINATION":82.5151,"RA_OF_ASC_NODE":196.5155,"ARG_OF_PERICENTER":240.0957,"MEAN_ANOMALY":119.8594,"EPHEMERIS_TYPE":0,"CLASSIFICATION_TYPE":"U","NORAD_CAT_ID":18749,"ELEMENT_SET_NO":999,"REV_AT_EPOCH":4184,"BSTAR":9.5922682e-5,"MEAN_MOTION_DOT":8.54e-6,"MEAN_MOTION_DDOT":0},{"OBJECT_NAME":"COSMOS 1933","OBJECT_ID":"1988-020A","EPOCH":"2026-03-08T14:29:08.668320","MEAN_MOTION":15.17970973,"ECCENTRICITY":0.00037417,"INCLINATION":82.5098,"RA_OF_ASC_NODE":251.9863,"ARG_OF_PERICENTER":184.3261,"MEAN_ANOMALY":175.7941,"EPHEMERIS_TYPE":0,"CLASSIFICATION_TYPE":"U","NORAD_CAT_ID":18958,"ELEMENT_SET_NO":999,"REV_AT_EPOCH":5006,"BSTAR":0.00029882463,"MEAN_MOTION_DOT":6.099e-5,"MEAN_MOTION_DDOT":0},{"OBJECT_NAME":"SL-3 R/B","OBJECT_ID":"1988-032B","EPOCH":"2026-03-08T14:43:13.375200","MEAN_MOTION":15.19896943,"ECCENTRICITY":0.00243015,"INCLINATION":97.5197,"RA_OF_ASC_NODE":50.868,"ARG_OF_PERICENTER":235.4884,"MEAN_ANOMALY":124.4056,"EPHEMERIS_TYPE":0,"CLASSIFICATION_TYPE":"U","NORAD_CAT_ID":19046,"ELEMENT_SET_NO":999,"REV_AT_EPOCH":5194,"BSTAR":0.00037381606,"MEAN_MOTION_DOT":8.021e-5,"MEAN_MOTION_DDOT":0},{"OBJECT_NAME":"SL-16 R/B","OBJECT_ID":"1988-039B","EPOCH":"2026-03-08T10:19:22.957248","MEAN_MOTION":14.19615461,"ECCENTRICITY":0.00227151,"INCLINATION":71.0133,"RA_OF_ASC_NODE":71.211,"ARG_OF_PERICENTER":336.1659,"MEAN_ANOMALY":23.8412,"EPHEMERIS_TYPE":0,"CLASSIFICATION_TYPE":"U","NORAD_CAT_ID":19120,"ELEMENT_SET_NO":999,"REV_AT_EPOCH":95820,"BSTAR":-4.1373855e-5,"MEAN_MOTION_DOT":-1.36e-6,"MEAN_MOTION_DDOT":0},{"OBJECT_NAME":"COSMOS 1953","OBJECT_ID":"1988-050A","EPOCH":"2026-03-08T07:35:30.992352","MEAN_MOTION":15.28502296,"ECCENTRICITY":0.00124347,"INCLINATION":82.5102,"RA_OF_ASC_NODE":159.6275,"ARG_OF_PERICENTER":126.9953,"MEAN_ANOMALY":233.2427,"EPHEMERIS_TYPE":0,"CLASSIFICATION_TYPE":"U","NORAD_CAT_ID":19210,"ELEMENT_SET_NO":999,"REV_AT_EPOCH":3757,"BSTAR":0.00049855494,"MEAN_MOTION_DOT":0.00013896,"MEAN_MOTION_DDOT":0}]
